ORBCOMM FM20 [+]        
1 25416U 98046D   23332.97435358  .00001997  00000+0  74926-3 0  9998
2 25416  44.9955 336.8858 0002519 274.4158  85.6400 14.34645296322920
ORBCOMM FM16 [-]        
1 25417U 98046E   23333.58835985  .00003209  00000+0  11556-2 0  9994
2 25417  44.9954 330.8417 0005496 316.1864  43.8547 14.35416810322893
ORBCOMM FM15 [-]        
1 25418U 98046F   23333.37636583  .00002606  00000+0  95222-3 0  9998
2 25418  44.9988 335.5378 0004944 314.3218  45.7223 14.35165171322870
ORBCOMM FM14 [-]        
1 25419U 98046G   23333.00412740  .00002900  00000+0  10517-2 0  9996
2 25419  44.9979 336.5960 0004258 301.1481  83.8891 14.35285912322772
ORBCOMM FM13 [+]        
1 25420U 98046H   23332.97134567  .00002140  00000+0  79814-3 0  9993
2 25420  44.9989 340.7967 0006324 303.9019  56.1226 14.34701338322973
ORBCOMM FM21 [-]        
1 25475U 98053A   23333.33682342  .00002287  00000+0  84968-3 0  9999
2 25475  45.0096  63.2106 0002246 240.1863 119.8761 14.34710965315917
ORBCOMM FM22 [-]        
1 25476U 98053B   23333.36656878  .00002788  00000+0  10166-2 0  9992
2 25476  45.0086  60.9361 0003793 248.4819 111.5624 14.35106131315905
ORBCOMM FM23 [-]        
1 25477U 98053C   23333.36714709  .00002663  00000+0  98136-3 0  9997
2 25477  45.0091  65.5164 0003236 245.5804 114.4705 14.34699142316066
